LEMUR-2-FINNIAN         
1 66782U 25276DX  26200.15598013  .00001369  00000+0  11280-3 0  9996
2 66782  97.5359 270.1540 0007070 343.4542  16.6451 15.00640841 24791
LEMUR-2-STARLIGHT       
1 66783U 25276DY  26200.13991300  .00003662  00000+0  30327-3 0  9992
2 66783  97.5234 269.6876 0014655  35.4306 324.7888 14.99384403 34987
LEMUR-2-TARTIFLETTE     
1 66784U 25276DZ  26200.20509456  .00003363  00000+0  27906-3 0  9995
2 66784  97.5232 269.7584 0013864  43.8497 316.3825 14.99367086 34995
LEMUR-2-VUKASIN         
1 66785U 25276EA  26200.43897603  .00002248  00000+0  18269-3 0  9998
2 66785  97.5207 270.3496 0002388  40.6310 319.5092 15.00566588 34987
LEMUR-2-HOTSPUR-TOM     
1 66786U 25276EB  26200.13302375  .00002910  00000+0  24281-3 0  9990
2 66786  97.5212 269.6614 0013653  35.7744 324.4392 14.99264226 34912
LEMUR-2-MYRA            
1 66787U 25276EC  26200.13733705  .00003172  00000+0  25471-3 0  9999
2 66787  97.5220 269.9778 0018616  42.2452 318.0202 15.00614845 35008
LEMUR-2 FIKRETDENGIZ    
1 67363U 26004A   26200.46995645  .00002156  00000+0  23756-3 0  9994
2 67363  97.8033 198.5382 0009887  43.8961 316.3040 14.88533773 28080
TWILIGHT-1 OBJECT B     
1 67364U 26004B   26200.44193371  .00000845  00000+0  98493-4 0  9993
2 67364  97.8077 198.5091 0009425  33.5758 326.6055 14.87801390 28086
LEMUR-2-MARIO-SOUSA     
1 67365U 26004C   26199.97872622  .00001910  00000+0  21004-3 0  9999
2 67365  97.8005 198.0493 0009565  46.6501 313.5512 14.88744542 28028
LEMUR-2-SONNENBLUME     
1 67367U 26004E   26200.45285726  .00001294  00000+0  14525-3 0  9995
2 67367  97.8003 198.4871 0009163  46.3070 313.8905 14.88465326 28090
LEMUR-2-WOBLER          
1 67368U 26004F   26200.44143940  .00001781  00000+0  19639-3 0  9998
2 67368  97.8057 198.6312 0009179  37.7579 322.4281 14.88714053 28094
LEMUR-2-GRAM-E-SUE      
1 67370U 26004H   26200.43389006  .00001153  00000+0  12965-3 0  9993
2 67370  97.7989 198.4851 0008348  49.5477 310.6466 14.88599959 28091
LEMUR-2-KATIE           
1 67387U 26004AA  26200.45326137  .00002057  00000+0  21761-3 0  9997
2 67387  97.8049 199.0699 0003093  23.2939 336.8418 14.90270634 28117
LEMUR-2-HCS-BAZUS       
1 67388U 26004AB  26200.25016086  .00001783  00000+0  18935-3 0  9999
2 67388  97.8039 198.8470 0002641  25.2355 334.8991 14.90278599 28081
