OBJECT_NAME,OBJECT_ID,EPOCH,MEAN_MOTION,ECCENTRICITY,INCLINATION,RA_OF_ASC_NODE,ARG_OF_PERICENTER,MEAN_ANOMALY,EPHEMERIS_TYPE,CLASSIFICATION_TYPE,NORAD_CAT_ID,ELEMENT_SET_NO,REV_AT_EPOCH,BSTAR,MEAN_MOTION_DOT,MEAN_MOTION_DDOT
LEMUR-2-FINNIAN,2025-276DX,2026-07-19T03:44:36.683232,15.00640841,.00070705,97.5359,270.1540,343.4542,16.6451,0,U,66782,999,2479,.11279798E-3,.1369E-4,0
LEMUR-2-STARLIGHT,2025-276DY,2026-07-19T03:21:28.483200,14.99384403,.00146552,97.5234,269.6876,35.4306,324.7888,0,U,66783,999,3498,.303275E-3,.3662E-4,0
LEMUR-2-TARTIFLETTE,2025-276DZ,2026-07-19T04:55:20.169984,14.99367086,.00138644,97.5232,269.7584,43.8497,316.3825,0,U,66784,999,3499,.27905785E-3,.3363E-4,0
LEMUR-2-VUKASIN,2025-276EA,2026-07-19T10:32:07.528992,15.00566588,.00023881,97.5207,270.3496,40.6310,319.5092,0,U,66785,999,3498,.18269297E-3,.2248E-4,0
LEMUR-2-HOTSPUR-TOM,2025-276EB,2026-07-19T03:11:33.252000,14.99264226,.00136534,97.5212,269.6614,35.7744,324.4392,0,U,66786,999,3491,.24280969E-3,.291E-4,0
LEMUR-2-MYRA,2025-276EC,2026-07-19T03:17:45.921120,15.00614845,.0018616,97.5220,269.9778,42.2452,318.0202,0,U,66787,999,3500,.2547125E-3,.3172E-4,0
LEMUR-2 FIKRETDENGIZ,2026-004A,2026-07-19T11:16:44.237280,14.88533773,.00098878,97.8033,198.5382,43.8961,316.3040,0,U,67363,999,2808,.23755522E-3,.2156E-4,0
TWILIGHT-1 OBJECT B,2026-004B,2026-07-19T10:36:23.072544,14.87801390,.00094259,97.8077,198.5091,33.5758,326.6055,0,U,67364,999,2808,.98492995E-4,.845E-5,0
LEMUR-2-MARIO-SOUSA,2026-004C,2026-07-18T23:29:21.945408,14.88744542,.0009565,97.8005,198.0493,46.6501,313.5512,0,U,67365,999,2802,.21004198E-3,.191E-4,0
LEMUR-2-SONNENBLUME,2026-004E,2026-07-19T10:52:06.867264,14.88465326,.00091639,97.8003,198.4871,46.3070,313.8905,0,U,67367,999,2809,.14525048E-3,.1294E-4,0
LEMUR-2-WOBLER,2026-004F,2026-07-19T10:35:40.364160,14.88714053,.00091799,97.8057,198.6312,37.7579,322.4281,0,U,67368,999,2809,.19638808E-3,.1781E-4,0
LEMUR-2-GRAM-E-SUE,2026-004H,2026-07-19T10:24:48.101184,14.88599959,.00083487,97.7989,198.4851,49.5477,310.6466,0,U,67370,999,2809,.12964898E-3,.1153E-4,0
LEMUR-2-KATIE,2026-004AA,2026-07-19T10:52:41.782368,14.90270634,.00030936,97.8049,199.0699,23.2939,336.8418,0,U,67387,999,2811,.21760884E-3,.2057E-4,0
LEMUR-2-HCS-BAZUS,2026-004AB,2026-07-19T06:00:13.898304,14.90278599,.00026413,97.8039,198.8470,25.2355,334.8991,0,U,67388,999,2808,.18934613E-3,.1783E-4,0
